{"type": "FeatureCollection", "features": [ {"type": "Feature", "properties": {"norad_id": 37968, "name": "COSMOS 2251 DEB", "group": "cosmos-2251-debris", "lat": 69.53536251910558, "lon": 29.585415363356738, "alt_km": 555.652555304383, "timestamp": "2025-12-18T07:01:54.987571+00:00", "meta": {"OBJECT_NAME": "COSMOS 2251 DEB", "OBJECT_ID": "1993-036BPT", "EPOCH": "2025-12-13T01:47:19.855104", "MEAN_MOTION": 15.00631757, "ECCENTRICITY": 0.00804168, "INCLINATION": 74.0008, "RA_OF_ASC_NODE": 270.4748, "ARG_OF_PERICENTER": 26.0563, "MEAN_ANOMALY": 334.4636, "EPHEMERIS_TYPE": 0, "CLASSIFICATION_TYPE": "U", "NORAD_CAT_ID": 37968, "ELEMENT_SET_NO": 999, "REV_AT_EPOCH": 60224, "BSTAR": 0.0014144446, "MEAN_MOTION_DOT": 0.0001917, "MEAN_MOTION_DDOT": 0}, "tle": {"line1": "1 37968U 93036BPT 25347.07453536  .00019170  00000+0  14144-2 0  9991", "line2": "2 37968  74.0008 270.4748 0080416  26.0563 334.4636 15.00631757602245"}}, "geometry": {"type": "Point", "coordinates": [29.585415363356738, 69.53536251910558]}}, {"type": "Feature", "properties": {"norad_id": 37971, "name": "COSMOS 2251 DEB", "group": "cosmos-2251-debris", "lat": 56.10972778572872, "lon": 56.60653859928247, "alt_km": 739.6328115340411, "timestamp": "2025-12-18T07:01:54.987582+00:00", "meta": {"OBJECT_NAME": "COSMOS 2251 DEB", "OBJECT_ID": "1993-036BPW", "EPOCH": "2025-12-15T20:44:52.764576", "MEAN_MOTION": 14.48694104, "ECCENTRICITY": 0.00668395, "INCLINATION": 73.9939, "RA_OF_ASC_NODE": 35.8693, "ARG_OF_PERICENTER": 174.332, "MEAN_ANOMALY": 185.8612, "EPHEMERIS_TYPE": 0, "CLASSIFICATION_TYPE": "U", "NORAD_CAT_ID": 37971, "ELEMENT_SET_NO": 999, "REV_AT_EPOCH": 60723, "BSTAR": 0.0012835139, "MEAN_MOTION_DOT": 4.95e-05, "MEAN_MOTION_DDOT": 0}, "tle": {"line1": "1 37971U 93036BPW 25349.86449959  .00004950  00000+0  12835-2 0  9993", "line2": "2 37971  73.9939  35.8693 0066839 174.3320 185.8612 14.48694104607235"}}, "geometry": {"type": "Point", "coordinates": [56.60653859928247, 56.10972778572872]}}, {"type": "Feature", "properties": {"norad_id": 37975, "name": "COSMOS 2251 DEB", "group": "cosmos-2251-debris", "lat": 39.86145773019346, "lon": 119.3156071728536, "alt_km": 701.2593051384474, "timestamp": "2025-12-18T07:01:54.987592+00:00", "meta": {"OBJECT_NAME": "COSMOS 2251 DEB", "OBJECT_ID": "1993-036BQA", "EPOCH": "2025-12-13T15:48:30.179232", "MEAN_MOTION": 14.76130148, "ECCENTRICITY": 0.00956338, "INCLINATION": 74.0029, "RA_OF_ASC_NODE": 322.2658, "ARG_OF_PERICENTER": 311.4373, "MEAN_ANOMALY": 47.8613, "EPHEMERIS_TYPE": 0, "CLASSIFICATION_TYPE": "U", "NORAD_CAT_ID": 37975, "ELEMENT_SET_NO": 999, "REV_AT_EPOCH": 69759, "BSTAR": 0.0039912819, "MEAN_MOTION_DOT": 0.00029805, "MEAN_MOTION_DDOT": 0}, "tle": {"line1": "1 37975U 93036BQA 25347.65868263  .00029805  00000+0  39913-2 0  9997", "line2": "2 37975  74.0029 322.2658 0095633 311.4373  47.8613 14.76130148697591"}}, "geometry": {"type": "Point", "coordinates": [119.3156071728536, 39.86145773019346]}}, {"type": "Feature", "properties": {"norad_id": 37978, "name": "COSMOS 2251 DEB", "group": "cosmos-2251-debris", "lat": 15.138419201758468, "lon": -108.16718855031527, "alt_km": 268.4788804738346, "timestamp": "2025-12-18T07:01:54.987603+00:00", "meta": {"OBJECT_NAME": "COSMOS 2251 DEB", "OBJECT_ID": "1993-036BQD", "EPOCH": "2025-11-19T05:08:53.100672", "MEAN_MOTION": 15.61137081, "ECCENTRICITY": 0.00148985, "INCLINATION": 74.0238, "RA_OF_ASC_NODE": 142.2198, "ARG_OF_PERICENTER": 140.9849, "MEAN_ANOMALY": 219.2448, "EPHEMERIS_TYPE": 0, "CLASSIFICATION_TYPE": "U", "NORAD_CAT_ID": 37978, "ELEMENT_SET_NO": 999, "REV_AT_EPOCH": 8032, "BSTAR": 0.0043958825, "MEAN_MOTION_DOT": 0.0039117, "MEAN_MOTION_DDOT": 0}, "tle": {"line1": "1 37978U 93036BQD 25323.21450348  .00391170  00000+0  43959-2 0  9999", "line2": "2 37978  74.0238 142.2198 0014898 140.9849 219.2448 15.61137081 80328"}}, "geometry": {"type": "Point", "coordinates": [-108.16718855031527, 15.138419201758468]}}, {"type": "Feature", "properties": {"norad_id": 37985, "name": "COSMOS 2251 DEB", "group": "cosmos-2251-debris", "lat": 63.20186658841211, "lon": 40.99539150115954, "alt_km": 768.2065962070819, "timestamp": "2025-12-18T07:01:54.987612+00:00", "meta": {"OBJECT_NAME": "COSMOS 2251 DEB", "OBJECT_ID": "1993-036BQL", "EPOCH": "2025-12-16T11:01:39.454752", "MEAN_MOTION": 14.35484179, "ECCENTRICITY": 0.00209549, "INCLINATION": 74.0253, "RA_OF_ASC_NODE": 258.9094, "ARG_OF_PERICENTER": 20.5927, "MEAN_ANOMALY": 339.6065, "EPHEMERIS_TYPE": 0, "CLASSIFICATION_TYPE": "U", "NORAD_CAT_ID": 37985, "ELEMENT_SET_NO": 999, "REV_AT_EPOCH": 64970, "BSTAR": 4.4763475e-05, "MEAN_MOTION_DOT": 1.03e-06, "MEAN_MOTION_DDOT": 0}, "tle": {"line1": "1 37985U 93036BQL 25350.45948443  .00000103  00000+0  44763-4 0  9990", "line2": "2 37985  74.0253 258.9094 0020954  20.5927 339.6065 14.35484179649701"}}, "geometry": {"type": "Point", "coordinates": [40.99539150115954, 63.20186658841211]}}, {"type": "Feature", "properties": {"norad_id": 37988, "name": "COSMOS 2251 DEB", "group": "cosmos-2251-debris", "lat": 56.540892078904804, "lon": 38.91349350256934, "alt_km": 614.9417648146609, "timestamp": "2025-12-18T07:01:54.987625+00:00", "meta": {"OBJECT_NAME": "COSMOS 2251 DEB", "OBJECT_ID": "1993-036BQP", "EPOCH": "2025-12-15T01:56:17.446272", "MEAN_MOTION": 14.68888628, "ECCENTRICITY": 0.00634048, "INCLINATION": 74.0635, "RA_OF_ASC_NODE": 19.4997, "ARG_OF_PERICENTER": 56.3451, "MEAN_ANOMALY": 304.3745, "EPHEMERIS_TYPE": 0, "CLASSIFICATION_TYPE": "U", "NORAD_CAT_ID": 37988, "ELEMENT_SET_NO": 999, "REV_AT_EPOCH": 23430, "BSTAR": 0.00052756318, "MEAN_MOTION_DOT": 3.15e-05, "MEAN_MOTION_DDOT": 0}, "tle": {"line1": "1 37988U 93036BQP 25349.08075748  .00003150  00000+0  52756-3 0  9994", "line2": "2 37988  74.0635  19.4997 0063404  56.3451 304.3745 14.68888628234309"}}, "geometry": {"type": "Point", "coordinates": [38.91349350256934, 56.540892078904804]}}, {"type": "Feature", "properties": {"norad_id": 37993, "name": "COSMOS 2251 DEB", "group": "cosmos-2251-debris", "lat": 18.43164298232712, "lon": 161.7894952358214, "alt_km": 704.1248269433327, "timestamp": "2025-12-18T07:01:54.987645+00:00", "meta": {"OBJECT_NAME": "COSMOS 2251 DEB", "OBJECT_ID": "1993-036BQU", "EPOCH": "2025-12-17T04:37:52.855104", "MEAN_MOTION": 14.59966404, "ECCENTRICITY": 0.00218755, "INCLINATION": 74.021, "RA_OF_ASC_NODE": 158.4097, "ARG_OF_PERICENTER": 246.7183, "MEAN_ANOMALY": 113.168, "EPHEMERIS_TYPE": 0, "CLASSIFICATION_TYPE": "U", "NORAD_CAT_ID": 37993, "ELEMENT_SET_NO": 999, "REV_AT_EPOCH": 65382, "BSTAR": 0.0010496489, "MEAN_MOTION_DOT": 5.024e-05, "MEAN_MOTION_DDOT": 0}, "tle": {"line1": "1 37993U 93036BQU 25351.19297286  .00005024  00000+0  10496-2 0  9994", "line2": "2 37993  74.0210 158.4097 0021875 246.7183 113.1680 14.59966404653827"}}, "geometry": {"type": "Point", "coordinates": [161.7894952358214, 18.43164298232712]}}, {"type": "Feature", "properties": {"norad_id": 37994, "name": "COSMOS 2251 DEB", "group": "cosmos-2251-debris", "lat": 57.227484690548735, "lon": -68.16490745660268, "alt_km": 750.1841865764791, "timestamp": "2025-12-18T07:01:54.987656+00:00", "meta": {"OBJECT_NAME": "COSMOS 2251 DEB", "OBJECT_ID": "1993-036BQV", "EPOCH": "2025-12-17T10:44:14.649792", "MEAN_MOTION": 14.39634337, "ECCENTRICITY": 0.00231224, "INCLINATION": 74.036, "RA_OF_ASC_NODE": 266.9955, "ARG_OF_PERICENTER": 345.5167, "MEAN_ANOMALY": 14.5322, "EPHEMERIS_TYPE": 0, "CLASSIFICATION_TYPE": "U", "NORAD_CAT_ID": 37994, "ELEMENT_SET_NO": 999, "REV_AT_EPOCH": 77132, "BSTAR": 0.00029525647, "MEAN_MOTION_DOT": 8.99e-06, "MEAN_MOTION_DDOT": 0}, "tle": {"line1": "1 37994U 93036BQV 25351.44739178  .00000899  00000+0  29526-3 0  9994", "line2": "2 37994  74.0360 266.9955 0023122 345.5167  14.5322 14.39634337771327"}}, "geometry": {"type": "Point", "coordinates": [-68.16490745660268, 57.227484690548735]}}, {"type": "Feature", "properties": {"norad_id": 37998, "name": "COSMOS 2251 DEB", "group": "cosmos-2251-debris", "lat": 71.45641341877507, "lon": -76.67605572020209, "alt_km": 744.4741431019556, "timestamp": "2025-12-18T07:01:54.987666+00:00", "meta": {"OBJECT_NAME": "COSMOS 2251 DEB", "OBJECT_ID": "1993-036BQZ", "EPOCH": "2025-12-07T01:34:33.386016", "MEAN_MOTION": 14.45444842, "ECCENTRICITY": 0.00199405, "INCLINATION": 74.0387, "RA_OF_ASC_NODE": 245.6796, "ARG_OF_PERICENTER": 320.6712, "MEAN_ANOMALY": 39.2997, "EPHEMERIS_TYPE": 0, "CLASSIFICATION_TYPE": "U", "NORAD_CAT_ID": 37998, "ELEMENT_SET_NO": 999, "REV_AT_EPOCH": 64205, "BSTAR": 0.00093558552, "MEAN_MOTION_DOT": 3.277e-05, "MEAN_MOTION_DDOT": 0}, "tle": {"line1": "1 37998U 93036BQZ 25341.06566419  .00003277  00000+0  93559-3 0  9991", "line2": "2 37998  74.0387 245.6796 0019940 320.6712  39.2997 14.45444842642056"}}, "geometry": {"type": "Point", "coordinates": [-76.67605572020209, 71.45641341877507]}}, {"type": "Feature", "properties": {"norad_id": 38001, "name": "COSMOS 2251 DEB", "group": "cosmos-2251-debris", "lat": -9.854220207635828, "lon": 118.52592421056124, "alt_km": 627.7874625782242, "timestamp": "2025-12-18T07:01:54.987676+00:00", "meta": {"OBJECT_NAME": "COSMOS 2251 DEB", "OBJECT_ID": "1993-036BRC", "EPOCH": "2025-12-15T19:42:14.537376", "MEAN_MOTION": 14.79113277, "ECCENTRICITY": 0.00654168, "INCLINATION": 74.0014, "RA_OF_ASC_NODE": 126.2535, "ARG_OF_PERICENTER": 275.1808, "MEAN_ANOMALY": 236.4371, "EPHEMERIS_TYPE": 0, "CLASSIFICATION_TYPE": "U", "NORAD_CAT_ID": 38001, "ELEMENT_SET_NO": 999, "REV_AT_EPOCH": 74753, "BSTAR": 0.00056649875, "MEAN_MOTION_DOT": 4.316e-05, "MEAN_MOTION_DDOT": 0}, "tle": {"line1": "1 38001U 93036BRC 25349.82100159  .00004316  00000+0  56650-3 0  9990", "line2": "2 38001  74.0014 126.2535 0065416 275.1808 236.4371 14.79113277747531"}}, "geometry": {"type": "Point", "coordinates": [118.52592421056124, -9.854220207635828]}}]}